{
  "type": "FeatureCollection",
  "features": [
    {
      "type": "Feature",
      "properties": {
        "norad_id": 66608,
        "name": "STARLINK-36036",
        "group": "last-30-days",
        "lat": 21.407687002128778,
        "lon": -81.86868694152675,
        "alt_km": 327.0720662441654,
        "timestamp": "2025-12-02T13:52:16.066509+00:00",
        "meta_object_name": "STARLINK-36036",
        "meta_object_id": "2025-270W",
        "meta_epoch": "2025-12-01T16:00:03.999744",
        "meta_mean_motion": 15.83634547,
        "meta_eccentricity": 0.00016477,
        "meta_inclination": 42.9989,
        "meta_ra_of_asc_node": 258.8356,
        "meta_arg_of_pericenter": 255.9792,
        "meta_mean_anomaly": 340.419,
        "meta_ephemeris_type": 0,
        "meta_classification_type": "U",
        "meta_norad_cat_id": 66608,
        "meta_element_set_no": 999,
        "meta_rev_at_epoch": 246,
        "meta_bstar": -0.0085117111,
        "meta_mean_motion_dot": -0.0168082,
        "meta_mean_motion_ddot": 0,
        "tle_line1": "1 66608U 25270W   25335.66671296 -.01680820  00000+0 -85117-2 0  9993",
        "tle_line2": "2 66608  42.9989 258.8356 0001647 255.9792 340.4190 15.83634547  2462"
      },
      "geometry": {
        "type": "Point",
        "coordinates": [
          -81.86868694152675,
          21.407687002128778
        ]
      }
    },
    {
      "type": "Feature",
      "properties": {
        "norad_id": 66609,
        "name": "STARLINK-36034",
        "group": "last-30-days",
        "lat": 22.5782126146328,
        "lon": -80.25187418012145,
        "alt_km": 326.7276613217646,
        "timestamp": "2025-12-02T13:52:16.066522+00:00",
        "meta_object_name": "STARLINK-36034",
        "meta_object_id": "2025-270X",
        "meta_epoch": "2025-12-01T16:00:03.999744",
        "meta_mean_motion": 15.83665773,
        "meta_eccentricity": 0.0001622,
        "meta_inclination": 42.9989,
        "meta_ra_of_asc_node": 258.831,
        "meta_arg_of_pericenter": 261.3925,
        "meta_mean_anomaly": 336.8441,
        "meta_ephemeris_type": 0,
        "meta_classification_type": "U",
        "meta_norad_cat_id": 66609,
        "meta_element_set_no": 999,
        "meta_rev_at_epoch": 246,
        "meta_bstar": -0.0085624239,
        "meta_mean_motion_dot": -0.01691638,
        "meta_mean_motion_ddot": 0,
        "tle_line1": "1 66609U 25270X   25335.66671296 -.01691638  00000+0 -85624-2 0  9996",
        "tle_line2": "2 66609  42.9989 258.8310 0001622 261.3925 336.8441 15.83665773  2468"
      },
      "geometry": {
        "type": "Point",
        "coordinates": [
          -80.25187418012145,
          22.5782126146328
        ]
      }
    },
    {
      "type": "Feature",
      "properties": {
        "norad_id": 66610,
        "name": "STARLINK-35680",
        "group": "last-30-days",
        "lat": 23.733366602828596,
        "lon": -78.60560602665835,
        "alt_km": 326.99227072817484,
        "timestamp": "2025-12-02T13:52:16.066534+00:00",
        "meta_object_name": "STARLINK-35680",
        "meta_object_id": "2025-270Y",
        "meta_epoch": "2025-12-01T18:00:02.999808",
        "meta_mean_motion": 15.83383649,
        "meta_eccentricity": 0.0001703,
        "meta_inclination": 42.9989,
        "meta_ra_of_asc_node": 258.3144,
        "meta_arg_of_pericenter": 256.7919,
        "meta_mean_anomaly": 98.9941,
        "meta_ephemeris_type": 0,
        "meta_classification_type": "U",
        "meta_norad_cat_id": 66610,
        "meta_element_set_no": 999,
        "meta_rev_at_epoch": 274,
        "meta_bstar": -0.0089161775,
        "meta_mean_motion_dot": -0.01731318,
        "meta_mean_motion_ddot": 0,
        "tle_line1": "1 66610U 25270Y   25335.75003472 -.01731318  00000+0 -89162-2 0  9994",
        "tle_line2": "2 66610  42.9989 258.3144 0001703 256.7919  98.9941 15.83383649  2742"
      },
      "geometry": {
        "type": "Point",
        "coordinates": [
          -78.60560602665835,
          23.733366602828596
        ]
      }
    },
    {
      "type": "Feature",
      "properties": {
        "norad_id": 66611,
        "name": "STARLINK-35583",
        "group": "last-30-days",
        "lat": 24.88112941582697,
        "lon": -76.91473739825607,
        "alt_km": 326.72406153358315,
        "timestamp": "2025-12-02T13:52:16.066544+00:00",
        "meta_object_name": "STARLINK-35583",
        "meta_object_id": "2025-270Z",
        "meta_epoch": "2025-12-01T18:00:02.999808",
        "meta_mean_motion": 15.83406212,
        "meta_eccentricity": 0.00017375,
        "meta_inclination": 42.9989,
        "meta_ra_of_asc_node": 258.3095,
        "meta_arg_of_pericenter": 261.6194,
        "meta_mean_anomaly": 96.0499,
        "meta_ephemeris_type": 0,
        "meta_classification_type": "U",
        "meta_norad_cat_id": 66611,
        "meta_element_set_no": 999,
        "meta_rev_at_epoch": 274,
        "meta_bstar": -0.0089650122,
        "meta_mean_motion_dot": -0.01741105,
        "meta_mean_motion_ddot": 0,
        "tle_line1": "1 66611U 25270Z   25335.75003472 -.01741105  00000+0 -89650-2 0  9992",
        "tle_line2": "2 66611  42.9989 258.3095 0001737 261.6194  96.0499 15.83406212  2744"
      },
      "geometry": {
        "type": "Point",
        "coordinates": [
          -76.91473739825607,
          24.88112941582697
        ]
      }
    },
    {
      "type": "Feature",
      "properties": {
        "norad_id": 66612,
        "name": "STARLINK-36039",
        "group": "last-30-days",
        "lat": 26.138203157685137,
        "lon": -74.99107117782772,
        "alt_km": 326.54016934782703,
        "timestamp": "2025-12-02T13:52:16.066556+00:00",
        "meta_object_name": "STARLINK-36039",
        "meta_object_id": "2025-270AA",
        "meta_epoch": "2025-12-01T18:00:02.999808",
        "meta_mean_motion": 15.83404731,
        "meta_eccentricity": 0.00016672,
        "meta_inclination": 42.9986,
        "meta_ra_of_asc_node": 258.3039,
        "meta_arg_of_pericenter": 265.3169,
        "meta_mean_anomaly": 94.5591,
        "meta_ephemeris_type": 0,
        "meta_classification_type": "U",
        "meta_norad_cat_id": 66612,
        "meta_element_set_no": 999,
        "meta_rev_at_epoch": 263,
        "meta_bstar": -0.0090795833,
        "meta_mean_motion_dot": -0.01798186,
        "meta_mean_motion_ddot": 0,
        "tle_line1": "1 66612U 25270AA  25335.75003472 -.01798186  00000+0 -90796-2 0  9997",
        "tle_line2": "2 66612  42.9986 258.3039 0001667 265.3169  94.5591 15.83404731  2633"
      },
      "geometry": {
        "type": "Point",
        "coordinates": [
          -74.99107117782772,
          26.138203157685137
        ]
      }
    },
    {
      "type": "Feature",
      "properties": {
        "norad_id": 66613,
        "name": "STARLINK-36037",
        "group": "last-30-days",
        "lat": 27.309482786872998,
        "lon": -73.12331895778519,
        "alt_km": 326.6316282328853,
        "timestamp": "2025-12-02T13:52:16.066569+00:00",
        "meta_object_name": "STARLINK-36037",
        "meta_object_id": "2025-270AB",
        "meta_epoch": "2025-12-01T18:00:02.999808",
        "meta_mean_motion": 15.83408931,
        "meta_eccentricity": 0.00017563,
        "meta_inclination": 42.9987,
        "meta_ra_of_asc_node": 258.2988,
        "meta_arg_of_pericenter": 259.3613,
        "meta_mean_anomaly": 102.5682,
        "meta_ephemeris_type": 0,
        "meta_classification_type": "U",
        "meta_norad_cat_id": 66613,
        "meta_element_set_no": 999,
        "meta_rev_at_epoch": 263,
        "meta_bstar": -0.0091242163,
        "meta_mean_motion_dot": -0.01806358,
        "meta_mean_motion_ddot": 0,
        "tle_line1": "1 66613U 25270AB  25335.75003472 -.01806358  00000+0 -91242-2 0  9996",
        "tle_line2": "2 66613  42.9987 258.2988 0001756 259.3613 102.5682 15.83408931  2630"
      },
      "geometry": {
        "type": "Point",
        "coordinates": [
          -73.12331895778519,
          27.309482786872998
        ]
      }
    },
    {
      "type": "Feature",
      "properties": {
        "norad_id": 66614,
        "name": "STARLINK-36040",
        "group": "last-30-days",
        "lat": 29.478747864513895,
        "lon": -69.43653210726735,
        "alt_km": 326.28099437142737,
        "timestamp": "2025-12-02T13:52:16.066579+00:00",
        "meta_object_name": "STARLINK-36040",
        "meta_object_id": "2025-270AC",
        "meta_epoch": "2025-12-01T18:00:02.999808",
        "meta_mean_motion": 15.83445621,
        "meta_eccentricity": 0.00016902,
        "meta_inclination": 42.9987,
        "meta_ra_of_asc_node": 258.289,
        "meta_arg_of_pericenter": 260.3971,
        "meta_mean_anomaly": 105.3783,
        "meta_ephemeris_type": 0,
        "meta_classification_type": "U",
        "meta_norad_cat_id": 66614,
        "meta_element_set_no": 999,
        "meta_rev_at_epoch": 247,
        "meta_bstar": -0.0092067706,
        "meta_mean_motion_dot": -0.01823456,
        "meta_mean_motion_ddot": 0,
        "tle_line1": "1 66614U 25270AC  25335.75003472 -.01823456  00000+0 -92068-2 0  9992",
        "tle_line2": "2 66614  42.9987 258.2890 0001690 260.3971 105.3783 15.83445621  2471"
      },
      "geometry": {
        "type": "Point",
        "coordinates": [
          -69.43653210726735,
          29.478747864513895
        ]
      }
    }
  ]
}